1 43873U 18109A   21064.65801341 -.00000010  00000-0  00000-0 0  9997
2 43873  55.0242 168.3938 0011495 198.4509 273.0763  2.00551560 16402
1 43873U 18109A   21065.60385817 -.00000025  00000-0  00000+0 0  9993
2 43873  55.0242 168.3564 0011533 198.5738 235.8625  2.00551557 16347
1 43873U 18109A   21065.60385817 -.00000025  00000-0  00000-0 0  9994
2 43873  55.0242 168.3564 0011533 198.5738 235.8625  2.00551557 16426
1 43873U 18109A   21066.37353494 -.00000035  00000-0  00000-0 0  9996
2 43873  55.0243 168.3260 0011579 198.2741  71.8770  2.00551679 16436
1 43873U 18109A   21066.84691958 -.00000040  00000-0  00000-0 0  9994
2 43873  55.0243 168.3073 0011597 198.3044  53.6351  2.00551702 16446
1 43873U 18109A   21067.44527292 -.00000045  00000-0  00000-0 0  9995
2 43873  55.0243 168.2836 0011623 198.3999 125.5569  2.00551744 16458
1 43873U 18109A   21067.62721194 -.00000046  00000-0  00000+0 0  9992
2 43873  55.0243 168.2764 0011628 198.4162 256.9025  2.00551754 16385
1 43873U 18109A   21067.62721194 -.00000046  00000-0  00000-0 0  9993
2 43873  55.0243 168.2764 0011628 198.4162 256.9025  2.00551754 16464
1 43873U 18109A   21068.41060973 -.00000047  00000-0  00000-0 0  9993
2 43873  55.0243 168.2455 0011659 198.4835 102.4566  2.00551820 16472
1 43873U 18109A   21068.63801707 -.00000047  00000-0  00000-0 0  9995
2 43873  55.0243 168.2365 0011665 198.5026 266.6280  2.00551832 16482
1 43873U 18109A   21069.49391667 -.00000042  00000-0  00000-0 0  9994
2 43873  55.0244 168.2027 0011695 198.5766 164.5227  2.00551905 16503
1 43873U 18109A   21069.88729272 -.00000039  00000-0  00000-0 0  9990
2 43873  55.0244 168.1872 0011709 198.6073  88.5138  2.00551939 16501
1 43873U 18109A   21070.12244671 -.00000037  00000-0  00000+0 0  9991
2 43873  55.0244 168.1779 0011715 198.6366 258.2683  2.00551950 16435
1 43873U 18109A   21070.36037656 -.00000034  00000-0  00000-0 0  9998
2 43873  55.0244 168.1685 0011725 198.6588  70.0340  2.00551975 16514
1 43873U 18109A   21070.60204796 -.00000031  00000-0  00000-0 0  9993
2 43873  55.0244 168.1590 0011730 198.6851 244.4972  2.00551988 16521
1 43873U 18109A   21071.07276125 -.00000026  00000-0  00000-0 0  9994
2 43873  55.0244 168.1404 0011743 198.7372 224.3053  2.00552023 16537
1 43873U 18109A   21071.84321454 -.00000016  00000-0  00000-0 0  9994
2 43873  55.0245 168.1100 0011766 198.8097  60.5088  2.00552082 16545
1 43873U 18109A   21072.08072800 -.00000013  00000-0  00000-0 0  9996
2 43873  55.0245 168.1007 0011769 198.8373 231.9687  2.00552093 16553
1 43873U 18109A   21072.62709826 -.00000007  00000-0  00000+0 0  9993
2 43873  55.0245 168.0791 0011782 198.8906 266.4011  2.00552127 16483
1 43873U 18109A   21072.62709826 -.00000007  00000-0  00000-0 0  9994
2 43873  55.0245 168.0791 0011782 198.8906 266.4011  2.00552127 16562
1 43873U 18109A   21073.56164090  .00000002  00000-0  00000-0 0  9990
2 43873  55.0246 168.0423 0011803 199.0033 221.0392  2.00552178 16580
1 43873U 18109A   21074.50143167  .00000007  00000-0  00000-0 0  9992
2 43873  55.0246 168.0053 0011821 199.1078 179.4747  2.00552221 16601
1 43873U 18109A   21074.58141578  .00000007  00000-0  00000-0 0  9994
2 43873  55.0246 168.0022 0011823 199.1142 237.2178  2.00552226 16607
1 43873U 18109A   21075.42788736  .00000008  00000-0  00000+0 0  9991
2 43873  55.0247 167.9688 0011836 199.1784 128.3164  2.00552260 16535
1 43873U 18109A   21075.42788736  .00000008  00000-0  00000-0 0  9992
2 43873  55.0247 167.9688 0011836 199.1784 128.3164  2.00552260 16614
1 43873U 18109A   21075.82737418  .00000008  00000-0  00000-0 0  9997
2 43873  55.0248 167.9531 0011843 199.2183  56.7107  2.00552275 16622
1 43873U 18109A   21076.36812903  .00000007  00000-0  00000-0 0  9999
2 43873  55.0248 167.9318 0011851 199.2752  87.0854  2.00552297 16637
1 43873U 18109A   21076.84008321  .00000005  00000-0  00000-0 0  9991
2 43873  55.0248 167.9133 0011856 199.3123  67.8050  2.00552314 16645
1 43873U 18109A   21077.42926264  .00000002  00000-0  00000-0 0  9998
2 43873  55.0249 167.8901 0011863 199.3749 133.1373  2.00552337 16651
1 43873U 18109A   21077.61205687  .00000001  00000-0  00000+0 0  9996
2 43873  55.0249 167.8828 0011865 199.3879 265.1039  2.00552342 16588
1 43873U 18109A   21077.85477774  .00000000  00000-0  00000-0 0  9990
2 43873  55.0249 167.8732 0011869 199.4087  80.3307  2.00552352 16663
1 43873U 18109A   21078.39048387 -.00000002  00000-0  00000-0 0  9997
2 43873  55.0249 167.8521 0011876 199.4846 107.0412  2.00552371 16676
1 43873U 18109A   21078.86573340 -.00000004  00000-0  00000-0 0  9993
2 43873  55.0249 167.8334 0011881 199.5260  90.1359  2.00552387 16685
1 43873U 18109A   21079.34984821 -.00000006  00000-0  00000-0 0  9999
2 43873  55.0249 167.8143 0011886 199.5723  79.6266  2.00552404 16692
1 43873U 18109A   21079.58067137 -.00000007  00000-0  00000-0 0  9998
2 43873  55.0249 167.8053 0011887 199.5892 246.2669  2.00552406 16703
1 43873U 18109A   21080.35322275 -.00000008  00000-0  00000+0 0  9992
2 43873  55.0250 167.7748 0011895 199.6551  83.9929  2.00552431 16632
1 43873U 18109A   21080.35322275 -.00000008  00000-0  00000-0 0  9993
2 43873  55.0250 167.7748 0011895 199.6551  83.9929  2.00552431 16700
1 43873U 18109A   21080.82698056 -.00000008  00000-0  00000-0 0  9998
2 43873  55.0250 167.7561 0011900 199.6972  66.0099  2.00552440 16707
1 43873U 18109A   21081.54607527 -.00000007  00000-0  00000-0 0  9990
2 43873  55.0250 167.7278 0011907 199.7526 225.1501  2.00552449 16711
1 43873U 18109A   21081.84345598 -.00000007  00000-0  00000-0 0  9990
2 43873  55.0250 167.7161 0011911 199.7831  79.8323  2.00552453 16717
1 43873U 18109A   21082.46104705 -.00000004  00000-0  00000+0 0  9998
2 43873  55.0251 167.6917 0011918 199.8288 165.6952  2.00552455 16680
1 43873U 18109A   21082.46104705 -.00000004  00000-0  00000-0 0  9999
2 43873  55.0251 167.6917 0011918 199.8288 165.6952  2.00552455 16736
1 43873U 18109A   21082.85386726 -.00000002  00000-0  00000-0 0  9995
2 43873  55.0251 167.6762 0011922 199.8589  89.2863  2.00552454 16734
1 43873U 18109A   21083.08743546  .00000000  00000-0  00000-0 0  9995
2 43873  55.0251 167.6670 0011925 199.8726 257.9119  2.00552454 16747
1 43873U 18109A   21083.62013101  .00000004  00000-0  00000-0 0  9996
2 43873  55.0251 167.6460 0011933 199.9369 282.4606  2.00552450 16758
1 43873U 18109A   21084.41163681  .00000010  00000-0  00000-0 0  9990
2 43873  55.0251 167.6147 0011943 199.9958 133.8790  2.00552444 16762
1 43873U 18109A   21085.82229855  .00000024  00000-0  00000+0 0  9996
2 43873  55.0250 167.5590 0011965 200.0511  72.3397  2.00552440 16749
1 43873U 18109A   21085.82229855  .00000024  00000-0  00000-0 0  9997
2 43873  55.0250 167.5590 0011965 200.0511  72.3397  2.00552440 16794
1 43873U 18109A   21086.56084257  .00000030  00000-0  00000-0 0  9991
2 43873  55.0250 167.5298 0011979 200.0757 245.5536  2.00552445 16813
1 43873U 18109A   21086.83741501  .00000032  00000-0  00000-0 0  9995
2 43873  55.0250 167.5189 0011985 200.0717  85.2465  2.00552452 16813
1 43873U 18109A   21087.51027856  .00000036  00000-0  00000-0 0  9995
2 43873  55.0251 167.4923 0012000 200.0886 211.0460  2.00552462 16832
1 43873U 18109A   21087.84957507  .00000038  00000-0  00000-0 0  9998
2 43873  55.0251 167.4788 0012010 200.0881  96.0230  2.00552474 16836
1 43873U 18109A   21088.08806378  .00000038  00000-0  00000+0 0  9993
2 43873  55.0251 167.4694 0012013 200.0923 268.2109  2.00552477 16798
1 43873U 18109A   21088.08806378  .00000038  00000-0  00000-0 0  9994
2 43873  55.0251 167.4694 0012013 200.0923 268.2109  2.00552477 16844
1 43873U 18109A   21088.85873719  .00000038  00000-0  00000-0 0  9992
2 43873  55.0252 167.4389 0012039 200.1398 104.5998  2.00552509 16856
1 43873U 18109A   21089.09655737  .00000037  00000-0  00000-0 0  9996
2 43873  55.0252 167.4295 0012043 200.1412 276.3077  2.00552512 16865
1 43873U 18109A   21089.57174479  .00000035  00000-0  00000-0 0  9996
2 43873  55.0252 167.4108 0012060 200.2034 259.3372  2.00552531 16879
1 43873U 18109A   21090.04786752  .00000031  00000-0  00000-0 0  9999
2 43873  55.0252 167.3919 0012076 200.2409 243.0666  2.00552554 16883
1 43873U 18109A   21090.53133773  .00000026  00000-0  00000+0 0  9995
2 43873  55.0253 167.3728 0012092 200.2812 232.0983  2.00552578 16840
1 43873U 18109A   21090.53133773  .00000026  00000-0  00000-0 0  9996
2 43873  55.0253 167.3728 0012092 200.2812 232.0983  2.00552578 16895
1 43873U 18109A   21091.83387293  .00000009  00000-0  00000-0 0  9999
2 43873  55.0254 167.3214 0012141 200.4260  92.4015  2.00552649 16916
1 43873U 18109A   21092.43281476  .00000000  00000-0  00000-0 0  9993
2 43873  55.0254 167.2977 0012161 200.4857 164.7860  2.00552683 16936
1 43873U 18109A   21092.54277081 -.00000001  00000-0  00000+0 0  9993
2 43873  55.0254 167.2934 0012164 200.4906 244.1709  2.00552687 16880
1 43873U 18109A   21092.54277081 -.00000001  00000-0  00000-0 0  9994
2 43873  55.0254 167.2934 0012164 200.4906 244.1709  2.00552687 16936
1 43873U 18109A   21093.49194775 -.00000014  00000-0  00000-0 0  9991
2 43873  55.0254 167.2558 0012196 200.5416 209.4390  2.00552744 16956
1 43873U 18109A   21093.79208897 -.00000017  00000-0  00000-0 0  9998
2 43873  55.0254 167.2440 0012208 200.5377  66.1490  2.00552764 16957
1 43873U 18109A   21094.50048125 -.00000023  00000-0  00000-0 0  9991
2 43873  55.0255 167.2160 0012229 200.5720 217.5841  2.00552810 16978
1 43873U 18109A   21095.27981907 -.00000025  00000-0  00000+0 0  9991
2 43873  55.0256 167.1851 0012255 200.5931  60.2561  2.00552869 16930
1 43873U 18109A   21095.81730488 -.00000024  00000-0  00000-0 0  9997
2 43873  55.0256 167.1639 0012272 200.6406  88.2812  2.00552910 16993
1 43873U 18109A   21096.06065650 -.00000023  00000-0  00000-0 0  9996
2 43873  55.0256 167.1543 0012276 200.6603 263.9650  2.00552925 17001
